LEO 1 (LEO VANTAGE 1)   
1 43113U 18004C   26068.70632107  .00005709  00000+0  39603-3 0  9997
2 43113  99.2469 334.0284 0352942  24.8540 336.9207 14.67184901422891
STARLINK-30372          
1 57789U 23134U   26068.07043306 -.00000125  00000+0  49857-5 0  9990
2 57789  43.0069  81.8748 0002165 274.4128  85.6476 15.27591071140771
